{
  "id": "https://api.weather.gov/stations/KBOI/observations/2026-05-04T15:00:00+00:00",
  "type": "Feature",
  "geometry": {"type": "Point", "coordinates": [-116.22, 43.56]},
  "properties": {
    "@id": "https://api.weather.gov/stations/KBOI/observations/2026-05-04T15:00:00+00:00",
    "@type": "wx:ObservationStation",
    "elevation": {"unitCode": "wmoUnit:m", "value": 874},
    "station": "https://api.weather.gov/stations/KBOI",
    "timestamp": "2026-05-04T15:00:00+00:00",
    "rawMessage": "METAR KBOI 041500Z 27008KT 10SM CLR 18/05 A2998 RMK AO2",
    "textDescription": "Clear",
    "icon": "https://api.weather.gov/icons/land/day/skc?size=medium",
    "temperature": {"unitCode": "wmoUnit:degC", "value": 18.2, "qualityControl": "V"},
    "dewpoint": {"unitCode": "wmoUnit:degC", "value": 5.1, "qualityControl": "V"},
    "windDirection": {"unitCode": "wmoUnit:degree_(angle)", "value": 270, "qualityControl": "V"},
    "windSpeed": {"unitCode": "wmoUnit:km_h-1", "value": 14.4, "qualityControl": "V"},
    "barometricPressure": {"unitCode": "wmoUnit:Pa", "value": 101500, "qualityControl": "V"},
    "seaLevelPressure": {"unitCode": "wmoUnit:Pa", "value": null, "qualityControl": "Z"},
    "visibility": {"unitCode": "wmoUnit:m", "value": 16093, "qualityControl": "C"},
    "relativeHumidity": {"unitCode": "wmoUnit:percent", "value": 42.0, "qualityControl": "V"},
    "precipitationLastHour": {"unitCode": "wmoUnit:mm", "value": null, "qualityControl": "Z"}
  }
}
